{"type": "FeatureCollection", "features": [ {"type": "Feature", "properties": {"norad_id": 38068, "name": "COSMOS 2251 DEB", "group": "cosmos-2251-debris", "lat": -27.8849997491603, "lon": -57.23971434904849, "alt_km": 771.3123596263567, "timestamp": "2025-12-10T23:33:13.215793+00:00", "meta": {"OBJECT_NAME": "COSMOS 2251 DEB", "OBJECT_ID": "1993-036BSA", "EPOCH": "2025-11-26T00:12:22.263264", "MEAN_MOTION": 14.35960004, "ECCENTRICITY": 0.00240903, "INCLINATION": 74.0219, "RA_OF_ASC_NODE": 338.9788, "ARG_OF_PERICENTER": 72.1007, "MEAN_ANOMALY": 288.2769, "EPHEMERIS_TYPE": 0, "CLASSIFICATION_TYPE": "U", "NORAD_CAT_ID": 38068, "ELEMENT_SET_NO": 999, "REV_AT_EPOCH": 66406, "BSTAR": 0.00028750999, "MEAN_MOTION_DOT": 8.11e-06, "MEAN_MOTION_DDOT": 0}, "tle": {"line1": "1 38068U 93036BSA 25330.00859101  .00000811  00000+0  28751-3 0  9998", "line2": "2 38068  74.0219 338.9788 0024090  72.1007 288.2769 14.35960004664064"}}, "geometry": {"type": "Point", "coordinates": [-57.23971434904849, -27.8849997491603]}}, {"type": "Feature", "properties": {"norad_id": 38197, "name": "COSMOS 2251 DEB", "group": "cosmos-2251-debris", "lat": 70.96430006192894, "lon": 57.12595704077914, "alt_km": 724.5343954514556, "timestamp": "2025-12-10T23:33:13.215801+00:00", "meta": {"OBJECT_NAME": "COSMOS 2251 DEB", "OBJECT_ID": "1993-036BSM", "EPOCH": "2025-12-08T19:03:08.420544", "MEAN_MOTION": 14.73659772, "ECCENTRICITY": 0.01272107, "INCLINATION": 73.9375, "RA_OF_ASC_NODE": 4.7948, "ARG_OF_PERICENTER": 243.2589, "MEAN_ANOMALY": 115.552, "EPHEMERIS_TYPE": 0, "CLASSIFICATION_TYPE": "U", "NORAD_CAT_ID": 38197, "ELEMENT_SET_NO": 999, "REV_AT_EPOCH": 85697, "BSTAR": 0.0065046848, "MEAN_MOTION_DOT": 0.00048579, "MEAN_MOTION_DDOT": 0}, "tle": {"line1": "1 38197U 93036BSM 25342.79384746  .00048579  00000+0  65047-2 0  9999", "line2": "2 38197  73.9375   4.7948 0127210 243.2589 115.5520 14.73659772856977"}}, "geometry": {"type": "Point", "coordinates": [57.12595704077914, 70.96430006192894]}}, {"type": "Feature", "properties": {"norad_id": 38199, "name": "COSMOS 2251 DEB", "group": "cosmos-2251-debris", "lat": -17.711597456657813, "lon": -109.64874421628541, "alt_km": 1265.5701313802165, "timestamp": "2025-12-10T23:33:13.215810+00:00", "meta": {"OBJECT_NAME": "COSMOS 2251 DEB", "OBJECT_ID": "1993-036BSP", "EPOCH": "2025-12-09T13:08:57.601824", "MEAN_MOTION": 13.64788419, "ECCENTRICITY": 0.0369499, "INCLINATION": 73.956, "RA_OF_ASC_NODE": 67.4327, "ARG_OF_PERICENTER": 354.5631, "MEAN_ANOMALY": 5.1515, "EPHEMERIS_TYPE": 0, "CLASSIFICATION_TYPE": "U", "NORAD_CAT_ID": 38199, "ELEMENT_SET_NO": 999, "REV_AT_EPOCH": 60978, "BSTAR": 0.00073909, "MEAN_MOTION_DOT": 9.26e-06, "MEAN_MOTION_DDOT": 0}, "tle": {"line1": "1 38199U 93036BSP 25343.54788891  .00000926  00000+0  73909-3 0  9995", "line2": "2 38199  73.9560  67.4327 0369499 354.5631   5.1515 13.64788419609786"}}, "geometry": {"type": "Point", "coordinates": [-109.64874421628541, -17.711597456657813]}}, {"type": "Feature", "properties": {"norad_id": 38208, "name": "COSMOS 2251 DEB", "group": "cosmos-2251-debris", "lat": -31.71445955540544, "lon": 72.19293929892096, "alt_km": 624.9630730787503, "timestamp": "2025-12-10T23:33:13.215822+00:00", "meta": {"OBJECT_NAME": "COSMOS 2251 DEB", "OBJECT_ID": "1993-036BSY", "EPOCH": "2025-12-09T13:47:05.669952", "MEAN_MOTION": 14.8367688, "ECCENTRICITY": 0.0002644, "INCLINATION": 74.0057, "RA_OF_ASC_NODE": 85.1942, "ARG_OF_PERICENTER": 169.4562, "MEAN_ANOMALY": 205.1363, "EPHEMERIS_TYPE": 0, "CLASSIFICATION_TYPE": "U", "NORAD_CAT_ID": 38208, "ELEMENT_SET_NO": 999, "REV_AT_EPOCH": 71112, "BSTAR": 0.003526, "MEAN_MOTION_DOT": 0.00029227, "MEAN_MOTION_DDOT": 0}, "tle": {"line1": "1 38208U 93036BSY 25343.57437118  .00029227  00000+0  35260-2 0  9994", "line2": "2 38208  74.0057  85.1942 0002644 169.4562 205.1363 14.83676880711127"}}, "geometry": {"type": "Point", "coordinates": [72.19293929892096, -31.71445955540544]}}, {"type": "Feature", "properties": {"norad_id": 38212, "name": "COSMOS 2251 DEB", "group": "cosmos-2251-debris", "lat": -41.35863113157673, "lon": 65.46942990640187, "alt_km": 706.7776927582645, "timestamp": "2025-12-10T23:33:13.215840+00:00", "meta": {"OBJECT_NAME": "COSMOS 2251 DEB", "OBJECT_ID": "1993-036BTC", "EPOCH": "2025-12-08T13:15:26.464032", "MEAN_MOTION": 14.77639869, "ECCENTRICITY": 0.0092747, "INCLINATION": 74.0522, "RA_OF_ASC_NODE": 84.8103, "ARG_OF_PERICENTER": 153.0073, "MEAN_ANOMALY": 207.5971, "EPHEMERIS_TYPE": 0, "CLASSIFICATION_TYPE": "U", "NORAD_CAT_ID": 38212, "ELEMENT_SET_NO": 999, "REV_AT_EPOCH": 81248, "BSTAR": 0.00080388, "MEAN_MOTION_DOT": 6.149e-05, "MEAN_MOTION_DDOT": 0}, "tle": {"line1": "1 38212U 93036BTC 25342.55238963  .00006149  00000+0  80388-3 0  9993", "line2": "2 38212  74.0522  84.8103 0092747 153.0073 207.5971 14.77639869812484"}}, "geometry": {"type": "Point", "coordinates": [65.46942990640187, -41.35863113157673]}}, {"type": "Feature", "properties": {"norad_id": 38220, "name": "COSMOS 2251 DEB", "group": "cosmos-2251-debris", "lat": 8.817488226455328, "lon": 74.38169556150913, "alt_km": 588.7348365885391, "timestamp": "2025-12-10T23:33:13.215849+00:00", "meta": {"OBJECT_NAME": "COSMOS 2251 DEB", "OBJECT_ID": "1993-036BTL", "EPOCH": "2025-12-10T12:15:11.867328", "MEAN_MOTION": 14.92691661, "ECCENTRICITY": 0.00043841, "INCLINATION": 74.0139, "RA_OF_ASC_NODE": 72.7799, "ARG_OF_PERICENTER": 56.4542, "MEAN_ANOMALY": 303.7059, "EPHEMERIS_TYPE": 0, "CLASSIFICATION_TYPE": "U", "NORAD_CAT_ID": 38220, "ELEMENT_SET_NO": 999, "REV_AT_EPOCH": 71337, "BSTAR": 0.0048679198, "MEAN_MOTION_DOT": 0.00050565, "MEAN_MOTION_DDOT": 0}, "tle": {"line1": "1 38220U 93036BTL 25344.51055402  .00050565  00000+0  48679-2 0  9992", "line2": "2 38220  74.0139  72.7799 0004384  56.4542 303.7059 14.92691661713370"}}, "geometry": {"type": "Point", "coordinates": [74.38169556150913, 8.817488226455328]}}, {"type": "Feature", "properties": {"norad_id": 38479, "name": "COSMOS 2251 DEB", "group": "cosmos-2251-debris", "lat": 53.26780308950785, "lon": -15.073669957651333, "alt_km": 818.6313636247796, "timestamp": "2025-12-10T23:33:13.215858+00:00", "meta": {"OBJECT_NAME": "COSMOS 2251 DEB", "OBJECT_ID": "1993-036BTP", "EPOCH": "2025-12-10T06:49:46.172352", "MEAN_MOTION": 14.38253174, "ECCENTRICITY": 0.0084224, "INCLINATION": 74.007, "RA_OF_ASC_NODE": 188.8137, "ARG_OF_PERICENTER": 298.3144, "MEAN_ANOMALY": 178.6489, "EPHEMERIS_TYPE": 0, "CLASSIFICATION_TYPE": "U", "NORAD_CAT_ID": 38479, "ELEMENT_SET_NO": 999, "REV_AT_EPOCH": 64652, "BSTAR": 0.0026738, "MEAN_MOTION_DOT": 8.453e-05, "MEAN_MOTION_DDOT": 0}, "tle": {"line1": "1 38479U 93036BTP 25344.28456218  .00008453  00000+0  26738-2 0  9993", "line2": "2 38479  74.0070 188.8137 0084224 298.3144 178.6489 14.38253174646522"}}, "geometry": {"type": "Point", "coordinates": [-15.073669957651333, 53.26780308950785]}}, {"type": "Feature", "properties": {"norad_id": 38481, "name": "COSMOS 2251 DEB", "group": "cosmos-2251-debris", "lat": -54.620793912486796, "lon": -13.345384563143723, "alt_km": 749.5087005710975, "timestamp": "2025-12-10T23:33:13.215869+00:00", "meta": {"OBJECT_NAME": "COSMOS 2251 DEB", "OBJECT_ID": "1993-036BTR", "EPOCH": "2025-12-10T08:19:41.151648", "MEAN_MOTION": 13.94804708, "ECCENTRICITY": 0.02346022, "INCLINATION": 73.9337, "RA_OF_ASC_NODE": 11.6927, "ARG_OF_PERICENTER": 312.3811, "MEAN_ANOMALY": 45.7666, "EPHEMERIS_TYPE": 0, "CLASSIFICATION_TYPE": "U", "NORAD_CAT_ID": 38481, "ELEMENT_SET_NO": 999, "REV_AT_EPOCH": 59027, "BSTAR": 0.0022951053, "MEAN_MOTION_DOT": 3.847e-05, "MEAN_MOTION_DDOT": 0}, "tle": {"line1": "1 38481U 93036BTR 25344.34700407  .00003847  00000+0  22951-2 0  9990", "line2": "2 38481  73.9337  11.6927 0234602 312.3811  45.7666 13.94804708590271"}}, "geometry": {"type": "Point", "coordinates": [-13.345384563143723, -54.620793912486796]}}, {"type": "Feature", "properties": {"norad_id": 38483, "name": "COSMOS 2251 DEB", "group": "cosmos-2251-debris", "lat": -11.116667839377634, "lon": -161.92900259656358, "alt_km": 772.3514066295884, "timestamp": "2025-12-10T23:33:13.215880+00:00", "meta": {"OBJECT_NAME": "COSMOS 2251 DEB", "OBJECT_ID": "1993-036BTT", "EPOCH": "2025-12-09T19:47:02.543136", "MEAN_MOTION": 14.28773008, "ECCENTRICITY": 0.01104951, "INCLINATION": 74.2621, "RA_OF_ASC_NODE": 16.9647, "ARG_OF_PERICENTER": 123.4818, "MEAN_ANOMALY": 237.6953, "EPHEMERIS_TYPE": 0, "CLASSIFICATION_TYPE": "U", "NORAD_CAT_ID": 38483, "ELEMENT_SET_NO": 999, "REV_AT_EPOCH": 63436, "BSTAR": 0.0013200119, "MEAN_MOTION_DOT": 3.528e-05, "MEAN_MOTION_DDOT": 0}, "tle": {"line1": "1 38483U 93036BTT 25343.82433499  .00003528  00000+0  13200-2 0  9991", "line2": "2 38483  74.2621  16.9647 0110495 123.4818 237.6953 14.28773008634367"}}, "geometry": {"type": "Point", "coordinates": [-161.92900259656358, -11.116667839377634]}}, {"type": "Feature", "properties": {"norad_id": 38486, "name": "COSMOS 2251 DEB", "group": "cosmos-2251-debris", "lat": -64.3269002481774, "lon": 65.12128534582772, "alt_km": 662.5451574451336, "timestamp": "2025-12-10T23:33:13.215889+00:00", "meta": {"OBJECT_NAME": "COSMOS 2251 DEB", "OBJECT_ID": "1993-036BTW", "EPOCH": "2025-12-09T09:44:58.569216", "MEAN_MOTION": 14.73093158, "ECCENTRICITY": 0.0030131, "INCLINATION": 73.9406, "RA_OF_ASC_NODE": 211.3897, "ARG_OF_PERICENTER": 356.1257, "MEAN_ANOMALY": 183.7867, "EPHEMERIS_TYPE": 0, "CLASSIFICATION_TYPE": "U", "NORAD_CAT_ID": 38486, "ELEMENT_SET_NO": 999, "REV_AT_EPOCH": 75385, "BSTAR": 0.0034479645, "MEAN_MOTION_DOT": 0.00022398, "MEAN_MOTION_DDOT": 0}, "tle": {"line1": "1 38486U 93036BTW 25343.40623344  .00022398  00000+0  34480-2 0  9997", "line2": "2 38486  73.9406 211.3897 0030131 356.1257 183.7867 14.73093158753857"}}, "geometry": {"type": "Point", "coordinates": [65.12128534582772, -64.3269002481774]}}]}